[
    {
        "Altitude(m)": 611965.1670054642,
        "Argument of Periapsis(deg)": 0.0,
        "Eccentricity": 0.0,
        "Inclination(deg)": 60.0,
        "Latitude(deg)": 59.14010593923106,
        "Longitude(deg)": -86.03018856629242,
        "Mean Anomaly(deg)": -278.1818,
        "RAAN(deg)": 300.0,
        "Satellite Name": "Test1 1325",
        "Satellite Number": 1325,
        "Semi-Major Axis(m)": 6980739.136638005,
        "Time(s)": 0
    },
    {
        "Altitude(m)": 611995.7925886934,
        "Argument of Periapsis(deg)": 0.00010418945913296404,
        "Eccentricity": 0.0,
        "Inclination(deg)": 60.0,
        "Latitude(deg)": 59.28320601396808,
        "Longitude(deg)": -84.89682826869532,
        "Mean Anomaly(deg)": -277.5616938545382,
        "RAAN(deg)": 299.99957995086027,
        "Satellite Name": "Test1 1325",
        "Satellite Number": 1325,
        "Semi-Major Axis(m)": 6980739.136638005,
        "Time(s)": 10
    }
]